ORBCOMM FM37            
1 33064U 08031E   24164.84716444  .00002397  00000+0  36848-3 0  9995
2 33064  48.4410 295.4747 0006607 238.2670 256.3775 14.76653059859401
ORBCOMM FM40            
1 33065U 08031F   24164.81294554  .00003156  00000+0  46095-3 0  9995
2 33065  48.4427 284.6831 0008015 246.6175 247.1246 14.78025358859444
VESSELSAT 1             
1 37840U 11058C   24165.15969069  .00000398  00000+0  72982-4 0  9991
2 37840  19.9599 166.5613 0013873  87.8195 272.3798 14.11165234654342
ORBCOMM FM109           
1 40086U 14040A   24164.84173698  .00001348  00000+0  33598-3 0  9996
2 40086  47.0046 318.8534 0001069  51.1657 308.9324 14.56730705527184
ORBCOMM FM107           
1 40087U 14040B   24164.73856862  .00001289  00000+0  32282-3 0  9999
2 40087  47.0065 320.3086 0001009 345.1691  14.9164 14.56739938527244
ORBCOMM FM106           
1 40088U 14040C   24165.17498075  .00001332  00000+0  26661-3 0  9990
2 40088  47.0592 168.8899 0017081 155.6918 204.4781 14.67177818529451
ORBCOMM FM111           
1 40089U 14040D   24165.13738043  .00003254  00000+0  42748-3 0  9998
2 40089  47.0047  66.0921 0033317 230.1744 129.6218 14.82038636535404
ORBCOMM FM104           
1 40090U 14040E   24164.88110633  .00000945  00000+0  25439-3 0  9992
2 40090  47.0069 348.9248 0017253 316.1210  43.8303 14.55223152526803
